{
  "links" : {
    "next" : "https://api.nasa.gov/neo/rest/v1/neo/browse?page=2&size=20&api_key=jqAGvNAwUIBu4fl9FSOjdm3V4F7hIglRzI6pdX9d",
    "prev" : "https://api.nasa.gov/neo/rest/v1/neo/browse?page=0&size=20&api_key=jqAGvNAwUIBu4fl9FSOjdm3V4F7hIglRzI6pdX9d",
    "self" : "https://api.nasa.gov/neo/rest/v1/neo/browse?page=1&size=20&api_key=jqAGvNAwUIBu4fl9FSOjdm3V4F7hIglRzI6pdX9d"
  },
  "page" : {
    "size" : 20,
    "total_elements" : 20750,
    "total_pages" : 1038,
    "number" : 1
  },
  "near_earth_objects" : [ {
    "links" : {
      "self" : "https://api.nasa.gov/neo/rest/v1/neo/3092134?api_key=jqAGvNAwUIBu4fl9FSOjdm3V4F7hIglRzI6pdX9d"
    },
    "neo_reference_id" : "3092134",
    "name" : "(1995 BK2)",
    "designation" : "1995 BK2",
    "nasa_jpl_url" : "http://ssd.jpl.nasa.gov/sbdb.cgi?sstr=3092134",
    "absolute_magnitude_h" : 22.6,
    "estimated_diameter" : {
      "kilometers" : {
        "estimated_diameter_min" : 0.0802703167,
        "estimated_diameter_max" : 0.1794898848
      },
      "meters" : {
        "estimated_diameter_min" : 80.2703167283,
        "estimated_diameter_max" : 179.4898847799
      },
      "miles" : {
        "estimated_diameter_min" : 0.049877647,
        "estimated_diameter_max" : 0.1115298092
      },
      "feet" : {
        "estimated_diameter_min" : 263.3540659348,
        "estimated_diameter_max" : 588.8775935812
      }
    },
    "is_potentially_hazardous_asteroid" : false,
    "close_approach_data" : [ {
      "close_approach_date" : "1995-01-29",
      "epoch_date_close_approach" : 791366400000,
      "relative_velocity" : {
        "kilometers_per_second" : "14.8737367384",
        "kilometers_per_hour" : "53545.4522582771",
        "miles_per_hour" : "33271.06171015"
      },
      "miss_distance" : {
        "astronomical" : "0.1197465502",
        "lunar" : "46.5814094543",
        "kilometers" : "17913830",
        "miles" : "11131137"
      },
      "orbiting_body" : "Earth"
    } ],
    "orbital_data" : {
      "orbit_id" : "12",
      "orbit_determination_date" : "2017-04-06 09:18:12",
      "first_observation_date" : "1995-01-31",
      "last_observation_date" : "1995-02-07",
      "data_arc_in_days" : 7,
      "observations_used" : 34,
      "orbit_uncertainty" : "8",
      "minimum_orbit_intersection" : ".118541",
      "jupiter_tisserand_invariant" : "3.173",
      "epoch_osculation" : "2449751.5",
      "eccentricity" : ".549578098300351",
      "semi_major_axis" : "2.43852840399724",
      "inclination" : "24.71453769621841",
      "ascending_node_longitude" : "131.1999702591209",
      "orbital_period" : "1390.881577362989",
      "perihelion_distance" : "1.098366601077047",
      "perihelion_argument" : "349.5694348355665",
      "aphelion_distance" : "3.778690206917434",
      "perihelion_time" : "2449738.388408613994",
      "mean_anomaly" : "3.393655488565221",
      "mean_motion" : ".2588286492963218",
      "equinox" : "J2000",
      "orbit_class" : {
        "orbit_class_type" : "AMO",
        "orbit_class_range" : "1.017 AU < q (perihelion) < 1.3 AU",
        "orbit_class_description" : "Near-Earth asteroid orbits similar to that of 1221 Amor"
      }
    },
    "is_sentry_object" : false
  }, {
    "links" : {
      "self" : "https://api.nasa.gov/neo/rest/v1/neo/3092136?api_key=jqAGvNAwUIBu4fl9FSOjdm3V4F7hIglRzI6pdX9d"
    },
    "neo_reference_id" : "3092136",
    "name" : "(1995 DV1)",
    "designation" : "1995 DV1",
    "nasa_jpl_url" : "http://ssd.jpl.nasa.gov/sbdb.cgi?sstr=3092136",
    "absolute_magnitude_h" : 23.0,
    "estimated_diameter" : {
      "kilometers" : {
        "estimated_diameter_min" : 0.0667659413,
        "estimated_diameter_max" : 0.1492931834
      },
      "meters" : {
        "estimated_diameter_min" : 66.7659413495,
        "estimated_diameter_max" : 149.2931834393
      },
      "miles" : {
        "estimated_diameter_min" : 0.0414864197,
        "estimated_diameter_max" : 0.0927664547
      },
      "feet" : {
        "estimated_diameter_min" : 219.0483710172,
        "estimated_diameter_max" : 489.807047955
      }
    },
    "is_potentially_hazardous_asteroid" : false,
    "close_approach_data" : [ {
      "close_approach_date" : "1995-01-24",
      "epoch_date_close_approach" : 790934400000,
      "relative_velocity" : {
        "kilometers_per_second" : "10.1853480584",
        "kilometers_per_hour" : "36667.2530102342",
        "miles_per_hour" : "22783.6050718314"
      },
      "miss_distance" : {
        "astronomical" : "0.0542433567",
        "lunar" : "21.1006660461",
        "kilometers" : "8114690.5",
        "miles" : "5042235"
      },
      "orbiting_body" : "Earth"
    } ],
    "orbital_data" : {
      "orbit_id" : "12",
      "orbit_determination_date" : "2017-04-06 09:18:11",
      "first_observation_date" : "1995-02-25",
      "last_observation_date" : "1995-03-05",
      "data_arc_in_days" : 8,
      "observations_used" : 13,
      "orbit_uncertainty" : "9",
      "minimum_orbit_intersection" : ".0498883",
      "jupiter_tisserand_invariant" : "2.981",
      "epoch_osculation" : "2449776.5",
      "eccentricity" : ".6518370137542245",
      "semi_major_axis" : "2.773411188603458",
      "inclination" : "3.500205176129294",
      "ascending_node_longitude" : "172.4991534752217",
      "orbital_period" : "1687.018409271568",
      "perihelion_distance" : ".9655991215116255",
      "perihelion_argument" : "284.035975525906",
      "aphelion_distance" : "4.58122325569529",
      "perihelion_time" : "2449721.531724521250",
      "mean_anomaly" : "11.72991300130177",
      "mean_motion" : ".2133942332943736",
      "equinox" : "J2000",
      "orbit_class" : {
        "orbit_class_type" : "APO",
        "orbit_class_range" : "a (semi-major axis) > 1.0 AU; q (perihelion) < 1.017 AU",
        "orbit_class_description" : "Near-Earth asteroid orbits which cross the Earth’s orbit similar to that of 1862 Apollo"
      }
    },
    "is_sentry_object" : false
  }, {
    "links" : {
      "self" : "https://api.nasa.gov/neo/rest/v1/neo/3006207?api_key=jqAGvNAwUIBu4fl9FSOjdm3V4F7hIglRzI6pdX9d"
    },
    "neo_reference_id" : "3006207",
    "name" : "(1995 HM)",
    "designation" : "1995 HM",
    "nasa_jpl_url" : "http://ssd.jpl.nasa.gov/sbdb.cgi?sstr=3006207",
    "absolute_magnitude_h" : 23.0,
    "estimated_diameter" : {
      "kilometers" : {
        "estimated_diameter_min" : 0.0667659413,
        "estimated_diameter_max" : 0.1492931834
      },
      "meters" : {
        "estimated_diameter_min" : 66.7659413495,
        "estimated_diameter_max" : 149.2931834393
      },
      "miles" : {
        "estimated_diameter_min" : 0.0414864197,
        "estimated_diameter_max" : 0.0927664547
      },
      "feet" : {
        "estimated_diameter_min" : 219.0483710172,
        "estimated_diameter_max" : 489.807047955
      }
    },
    "is_potentially_hazardous_asteroid" : false,
    "close_approach_data" : [ {
      "close_approach_date" : "1995-05-27",
      "epoch_date_close_approach" : 801558000000,
      "relative_velocity" : {
        "kilometers_per_second" : "2.394256837",
        "kilometers_per_hour" : "8619.3246132242",
        "miles_per_hour" : "5355.7131187004"
      },
      "miss_distance" : {
        "astronomical" : "0.144948685",
        "lunar" : "56.3850402832",
        "kilometers" : "21684016",
        "miles" : "13473823"
      },
      "orbiting_body" : "Earth"
    } ],
    "orbital_data" : {
      "orbit_id" : "12",
      "orbit_determination_date" : "2017-04-06 09:18:09",
      "first_observation_date" : "1995-04-26",
      "last_observation_date" : "1995-06-20",
      "data_arc_in_days" : 55,
      "observations_used" : 57,
      "orbit_uncertainty" : "5",
      "minimum_orbit_intersection" : ".129129",
      "jupiter_tisserand_invariant" : "4.596",
      "epoch_osculation" : "2458600.5",
      "eccentricity" : ".2197538040259086",
      "semi_major_axis" : "1.459740136343933",
      "inclination" : "3.988429466723132",
      "ascending_node_longitude" : "45.28791876989472",
      "orbital_period" : "644.186695315532",
      "perihelion_distance" : "1.138956688493055",
      "perihelion_argument" : "209.0446571641772",
      "aphelion_distance" : "1.780523584194811",
      "perihelion_time" : "2458897.835223356437",
      "mean_anomaly" : "193.8359342303908",
      "mean_motion" : ".5588442024926745",
      "equinox" : "J2000",
      "orbit_class" : {
        "orbit_class_type" : "AMO",
        "orbit_class_range" : "1.017 AU < q (perihelion) < 1.3 AU",
        "orbit_class_description" : "Near-Earth asteroid orbits similar to that of 1221 Amor"
      }
    },
    "is_sentry_object" : false
  } ]
}